[{"OBJECT_NAME":"STARLINK-2575","OBJECT_ID":"2021-038AV","EPOCH":"2026-03-09T21:29:56.740704","MEAN_MOTION":15.30195358,"ECCENTRICITY":0.00010717,"INCLINATION":53.1595,"RA_OF_ASC_NODE":331.5862,"ARG_OF_PERICENTER":96.5209,"MEAN_ANOMALY":263.5914,"EPHEMERIS_TYPE":0,"CLASSIFICATION_TYPE":"U","NORAD_CAT_ID":48396,"ELEMENT_SET_NO":999,"REV_AT_EPOCH":26869,"BSTAR":1.8330645e-5,"MEAN_MOTION_DOT":1.84e-6,"MEAN_MOTION_DDOT":0},{"OBJECT_NAME":"TRANSPORTER-11 OBJECT A","OBJECT_ID":"2024-149A","EPOCH":"2026-03-09T17:54:54.302112","MEAN_MOTION":15.31141332,"ECCENTRICITY":0.00031096,"INCLINATION":97.378,"RA_OF_ASC_NODE":149.0949,"ARG_OF_PERICENTER":191.001,"MEAN_ANOMALY":169.1164,"EPHEMERIS_TYPE":0,"CLASSIFICATION_TYPE":"U","NORAD_CAT_ID":60468,"ELEMENT_SET_NO":999,"REV_AT_EPOCH":8683,"BSTAR":0.00036053677,"MEAN_MOTION_DOT":0.00010774,"MEAN_MOTION_DDOT":0}]
